NORAD_CAT_ID,OBJECT_NAME,OBJECT_TYPE,EPOCH,MEAN_MOTION,ECCENTRICITY,INCLINATION,RA_OF_ASC_NODE,ARG_OF_PERICENTER,MEAN_ANOMALY,BSTAR,MEAN_MOTION_DOT,MEAN_MOTION_DDOT,TLE_LINE0,TLE_LINE1,TLE_LINE2,SEMIMAJOR_AXIS,PERIOD,APOGEE,PERIGEE,DECAYED
51865.0,STARLINK-3503,PAYLOAD,2023-03-12 11:20:59,15.08838621,0.0001546,53.2135,236.7615,93.2751,266.8418,0.00011002,1.463e-05,0.0,0 STARLINK-3503,1 51865U 22022P   23071.47290930  .00001463  00000-0  11002-3 0  9991,2 51865  53.2135 236.7615 0001546  93.2751 266.8418 15.08838621 58076,6917.885,95.438,540.819,538.68,0.0
51865.0,STARLINK-3503,PAYLOAD,2023-03-13 11:11:46,15.08835837,0.0001418,53.2143,232.2996,105.3522,254.7626,3.6481e-05,2.93e-06,0.0,0 STARLINK-3503,1 51865U 22022P   23072.46651073  .00000293  00000-0  36481-4 0  9999,2 51865  53.2143 232.2996 0001418 105.3522 254.7626 15.08835837 58227,6917.893,95.438,540.739,538.777,0.0
51865.0,STARLINK-3503,PAYLOAD,2023-03-13 20:44:05,15.08843916,0.0001339,53.2148,230.5157,104.9425,255.1715,8.6664e-05,1.092e-05,0.0,0 STARLINK-3503,1 51865U 22022P   23072.86394745  .00001092  00000-0  86664-4 0  9999,2 51865  53.2148 230.5157 0001339 104.9425 255.1715 15.08843916 58288,6917.868,95.437,540.66,538.807,0.0
51865.0,STARLINK-3503,PAYLOAD,2023-03-14 11:02:33,15.08837187,0.0001402,53.2141,227.8397,101.2188,258.8961,0.00012032,1.627e-05,0.0,0 STARLINK-3503,1 51865U 22022P   23073.46011257  .00001627  00000-0  12032-3 0  9991,2 51865  53.2141 227.8397 0001402 101.2188 258.8961 15.08837187 58379,6917.889,95.438,540.724,538.784,0.0
51865.0,STARLINK-3503,PAYLOAD,2023-03-14 18:59:28,15.08855811,0.0001247,53.2152,226.3522,100.9266,259.1866,0.00025691,3.805e-05,0.0,0 STARLINK-3503,1 51865U 22022P   23073.79130156  .00003805  00000-0  25691-3 0  9992,2 51865  53.2152 226.3522 0001247 100.9266 259.1866 15.08855811 58423,6917.832,95.437,540.56,538.834,0.0
51865.0,STARLINK-3503,PAYLOAD,2023-03-15 10:53:20,15.08836366,0.0001282,53.2135,223.3793,91.7344,268.3794,-3.5997e-05,-8.61e-06,0.0,0 STARLINK-3503,1 51865U 22022P   23074.45370988 -.00000861  00000-0 -35997-4 0  9997,2 51865  53.2135 223.3793 0001282  91.7344 268.3794 15.08836366 58521,6917.891,95.438,540.643,538.87,0.0
51865.0,STARLINK-3503,PAYLOAD,2023-03-16 12:19:31,15.08827958,0.0001362,53.2149,218.6209,99.7409,260.3737,-0.00026848,-4.557e-05,0.0,0 STARLINK-3503,1 51865U 22022P   23075.51355466 -.00004557  00000-0 -26848-3 0  9999,2 51865  53.2149 218.6209 0001362  99.7409 260.3737 15.08827958 58687,6917.917,95.438,540.724,538.84,0.0
51865.0,STARLINK-3503,PAYLOAD,2023-03-16 18:41:03,15.08837545,0.0001364,53.215,217.4308,98.8528,261.2619,-8.4456e-05,-1.632e-05,0.0,0 STARLINK-3503,1 51865U 22022P   23075.77851134 -.00001632  00000-0 -84456-4 0  9991,2 51865  53.2150 217.4308 0001364  98.8528 261.2619 15.08837545 58727,6917.888,95.438,540.696,538.809,0.0
51865.0,STARLINK-3503,PAYLOAD,2023-03-17 02:37:59,15.08828633,0.0001819,53.2174,215.9456,87.6068,272.5132,-6.5617e-05,-1.332e-05,0.0,0 STARLINK-3503,1 51865U 22022P   23076.10972166 -.00001332  00000-0 -65617-4 0  9993,2 51865  53.2174 215.9456 0001819  87.6068 272.5132 15.08828633 58778,6917.915,95.438,541.039,538.522,0.0
51865.0,STARLINK-3503,PAYLOAD,2023-03-17 08:59:32,15.08823343,0.0001428,53.2157,214.7551,87.1521,272.9634,5.9066e-05,6.52e-06,0.0,0 STARLINK-3503,1 51865U 22022P   23076.37468533  .00000652  00000-0  59066-4 0  9993,2 51865  53.2157 214.7551 0001428  87.1521 272.9634 15.08823343 58816,6917.931,95.439,540.784,538.808,0.0
51865.0,STARLINK-3503,PAYLOAD,2023-03-17 18:31:51,15.08835139,0.0001431,53.2138,212.9715,89.7437,270.3719,0.00014441,2.011e-05,0.0,0 STARLINK-3503,1 51865U 22022P   23076.77212235  .00002011  00000-0  14441-3 0  9991,2 51865  53.2138 212.9715 0001431  89.7437 270.3719 15.08835139 58873,6917.895,95.438,540.75,538.77,0.0
51865.0,STARLINK-3503,PAYLOAD,2023-03-18 02:28:47,15.08836897,0.0001452,53.2144,211.4861,87.7124,272.4034,0.00042523,6.485e-05,0.0,0 STARLINK-3503,1 51865U 22022P   23077.10332338  .00006485  00000-0  42523-3 0  9997,2 51865  53.2144 211.4861 0001452  87.7124 272.4034 15.08836897 58921,6917.89,95.438,540.759,538.75,0.0
51865.0,STARLINK-3503,PAYLOAD,2023-03-18 13:36:28,15.08860794,0.0001387,53.2145,209.4031,88.7466,271.3685,0.00074783,0.00011641,0.0,0 STARLINK-3503,1 51865U 22022P   23077.56699609  .00011641  00000-0  74783-3 0  9997,2 51865  53.2145 209.4031 0001387  88.7466 271.3685 15.08860794 58995,6917.817,95.436,540.641,538.722,0.0
51865.0,STARLINK-3503,PAYLOAD,2023-03-18 19:58:00,15.0888706,0.0001384,53.2137,208.2125,91.9901,268.125,0.0013645,0.00021523,0.0,0 STARLINK-3503,1 51865U 22022P   23077.83194787  .00021523  00000-0  13645-2 0  9993,2 51865  53.2137 208.2125 0001384  91.9901 268.1250 15.08887060 59037,6917.737,95.435,540.559,538.644,0.0
51865.0,STARLINK-3503,PAYLOAD,2023-03-19 13:27:14,15.08853417,0.0001317,53.2142,204.9413,107.0891,253.0246,0.0010351,0.0001623,0.0,0 STARLINK-3503,1 51865U 22022P   23078.56058828  .00016230  00000-0  10351-2 0  9999,2 51865  53.2142 204.9413 0001317 107.0891 253.0246 15.08853417 59148,6917.839,95.437,540.615,538.793,0.0
51865.0,STARLINK-3503,PAYLOAD,2023-03-19 19:48:47,15.08864416,0.0001249,53.2146,203.7521,98.9878,261.1255,0.0015022,0.00023716,0.0,0 STARLINK-3503,1 51865U 22022P   23078.82554486  .00023716  00000-0  15022-2 0  9996,2 51865  53.2146 203.7521 0001249  98.9878 261.1255 15.08864416 59181,6917.806,95.436,540.535,538.807,0.0
51865.0,STARLINK-3503,PAYLOAD,2023-03-20 13:18:02,15.08841904,0.0001268,53.2155,200.4818,98.4424,261.6712,0.0014341,0.00022611,0.0,0 STARLINK-3503,1 51865U 22022P   23079.55419280  .00022611  00000-0  14341-2 0  9995,2 51865  53.2155 200.4818 0001268  98.4424 261.6712 15.08841904 59299,6917.875,95.437,540.617,538.862,0.0
51865.0,STARLINK-3503,PAYLOAD,2023-03-20 14:53:25,15.08844223,0.0001176,53.2155,200.1845,94.2934,265.8192,0.0017264,0.00027298,0.0,0 STARLINK-3503,1 51865U 22022P   23079.62043317  .00027298  00000-0  17264-2 0  9990,2 51865  53.2155 200.1845 0001176  94.2934 265.8192 15.08844223 59301,6917.867,95.437,540.546,538.919,0.0
51865.0,STARLINK-3503,PAYLOAD,2023-03-21 00:25:44,15.08840622,0.0001074,53.2159,198.4,101.3618,258.7494,0.00052734,8.115e-05,0.0,0 STARLINK-3503,1 51865U 22022P   23080.01787215  .00008115  00000-0  52734-3 0  9996,2 51865  53.2159 198.4000 0001074 101.3618 258.7494 15.08840622 59364,6917.878,95.438,540.486,539.001,0.0
51865.0,STARLINK-3503,PAYLOAD,2023-03-21 13:08:48,15.08864631,0.0001149,53.2157,196.0211,91.1816,268.9308,0.0019331,0.00030632,0.0,0 STARLINK-3503,1 51865U 22022P   23080.54778911  .00030632  00000-0  19331-2 0  9991,2 51865  53.2157 196.0211 0001149  91.1816 268.9308 15.08864631 59441,6917.805,95.436,540.465,538.875,0.0
51865.0,STARLINK-3503,PAYLOAD,2023-03-22 00:16:30,15.08860865,0.0001481,53.2158,193.9391,88.6066,271.5096,0.0010009,0.00015686,0.0,0 STARLINK-3503,1 51865U 22022P   23081.01146737  .00015686  00000-0  10009-2 0  9994,2 51865  53.2158 193.9391 0001481  88.6066 271.5096 15.08860865 59511,6917.817,95.436,540.706,538.657,0.0
51865.0,STARLINK-3503,PAYLOAD,2023-03-22 11:24:12,15.08837941,0.0001075,53.2155,191.8576,103.394,256.7172,0.001556,0.00024561,0.0,0 STARLINK-3503,1 51865U 22022P   23081.47515024  .00024561  00000-0  15560-2 0  9992,2 51865  53.2155 191.8576 0001075 103.3940 256.7172 15.08837941 59581,6917.887,95.438,540.495,539.008,0.0
51865.0,STARLINK-3503,PAYLOAD,2023-03-22 17:45:45,15.08859234,0.0001384,53.2163,190.6677,95.166,264.949,0.0023075,0.00036646,0.0,0 STARLINK-3503,1 51865U 22022P   23081.74010909  .00036646  00000-0  23075-2 0  9991,2 51865  53.2163 190.6677 0001384  95.1660 264.9490 15.08859234 59627,6917.822,95.436,540.644,538.729,0.0
51865.0,STARLINK-3503,PAYLOAD,2023-03-23 12:50:23,15.08853432,0.0001266,53.2154,187.0996,126.4868,233.6241,0.0017055,0.00026969,0.0,0 STARLINK-3503,1 51865U 22022P   23082.53499091  .00026969  00000-0  17055-2 0  9990,2 51865  53.2154 187.0996 0001266 126.4868 233.6241 15.08853432 59742,6917.839,95.437,540.58,538.829,0.0
51865.0,STARLINK-3503,PAYLOAD,2023-03-23 14:25:46,15.08854339,0.0001223,53.2152,186.8029,128.7959,231.3143,0.0017439,0.00027586,0.0,0 STARLINK-3503,1 51865U 22022P   23082.60123059  .00027586  00000-0  17439-2 0  9998,2 51865  53.2152 186.8029 0001223 128.7959 231.3143 15.08854339 59757,6917.837,95.437,540.548,538.856,0.0
51865.0,STARLINK-3503,PAYLOAD,2023-03-24 12:41:08,15.08911811,0.0001906,53.215,182.6421,56.707,303.4104,0.0025276,0.00040249,0.0,0 STARLINK-3503,1 51865U 22022P   23083.52857415  .00040249  00000-0  25276-2 0  9999,2 51865  53.2150 182.6421 0001906  56.7070 303.4104 15.08911811 59899,6917.661,95.433,540.844,538.207,0.0
51865.0,STARLINK-3503,PAYLOAD,2023-03-24 14:16:31,15.08930677,0.0001723,53.216,182.3434,66.8631,293.2542,0.0031285,0.0004998,0.0,0 STARLINK-3503,1 51865U 22022P   23083.59480826  .00049980  00000-0  31285-2 0  9992,2 51865  53.2160 182.3434 0001723  66.8631 293.2542 15.08930677 59908,6917.603,95.432,540.66,538.276,0.0
51865.0,STARLINK-3503,PAYLOAD,2023-03-24 19:02:39,15.08946618,0.0001617,53.2159,181.4475,72.1361,287.9807,0.0026278,0.00041905,0.0,0 STARLINK-3503,1 51865U 22022P   23083.79351431  .00041905  00000-0  26278-2 0  9998,2 51865  53.2159 181.4475 0001617  72.1361 287.9807 15.08946618 59932,6917.555,95.431,540.538,538.301,0.0
51865.0,STARLINK-3503,PAYLOAD,2023-03-25 12:31:56,15.08785528,0.0001519,53.2149,178.1805,79.617,280.4993,0.00086767,0.00013527,0.0,0 STARLINK-3503,1 51865U 22022P   23084.52218738  .00013527  00000-0  86767-3 0  9991,2 51865  53.2149 178.1805 0001519  79.6170 280.4993 15.08785528 60041,6918.047,95.441,540.963,538.861,0.0
51865.0,STARLINK-3503,PAYLOAD,2023-03-25 17:18:06,15.08799674,0.0001177,53.2139,177.2944,72.722,287.3901,0.00066353,0.00010276,0.0,0 STARLINK-3503,1 51865U 22022P   23084.72091353  .00010276  00000-0  66353-3 0  9992,2 51865  53.2139 177.2944 0001177  72.7220 287.3901 15.08799674 60079,6918.004,95.44,540.683,539.054,0.0
